[{"OBJECT_NAME":"STARLINK-30308","OBJECT_ID":"2023-131L","EPOCH":"2026-03-09T22:00:01.999584","MEAN_MOTION":15.12979471,"ECCENTRICITY":7.615e-5,"INCLINATION":43.0002,"RA_OF_ASC_NODE":170.4619,"ARG_OF_PERICENTER":239.0117,"MEAN_ANOMALY":330.2369,"EPHEMERIS_TYPE":0,"CLASSIFICATION_TYPE":"U","NORAD_CAT_ID":57742,"ELEMENT_SET_NO":999,"REV_AT_EPOCH":578,"BSTAR":0.074115533,"MEAN_MOTION_DOT":0.01457987,"MEAN_MOTION_DDOT":0},{"OBJECT_NAME":"KUIPER-00155","OBJECT_ID":"2025-217N","EPOCH":"2026-03-09T06:30:32.856768","MEAN_MOTION":15.23116677,"ECCENTRICITY":0.00054059,"INCLINATION":51.8785,"RA_OF_ASC_NODE":13.4958,"ARG_OF_PERICENTER":320.4858,"MEAN_ANOMALY":39.5728,"EPHEMERIS_TYPE":0,"CLASSIFICATION_TYPE":"U","NORAD_CAT_ID":65774,"ELEMENT_SET_NO":999,"REV_AT_EPOCH":2525,"BSTAR":0.00081110335,"MEAN_MOTION_DOT":0.00019122,"MEAN_MOTION_DDOT":0}]
